NORAD_CAT_ID,OBJECT_NAME,OBJECT_TYPE,EPOCH,MEAN_MOTION,ECCENTRICITY,INCLINATION,RA_OF_ASC_NODE,ARG_OF_PERICENTER,MEAN_ANOMALY,BSTAR,MEAN_MOTION_DOT,MEAN_MOTION_DDOT,TLE_LINE0,TLE_LINE1,TLE_LINE2,SEMIMAJOR_AXIS,PERIOD,APOGEE,PERIGEE,DECAYED
52687.0,STARLINK-3981,PAYLOAD,2022-06-01 20:00:01,15.7325285,0.0002195,53.2143,226.5441,27.2421,53.219,-0.00079848,-0.00111476,0.0,0 STARLINK-3981,1 52687U 22053AH  22152.83334491 -.00111476  00000-0 -79848-3 0  9998,2 52687  53.2143 226.5441 0002195  27.2421  53.2190 15.73252850  2580,6727.745,91.53,351.086,348.1330000000001,0.0
52687.0,STARLINK-3981,PAYLOAD,2022-06-02 20:03:16,15.73243186,0.0004165,53.2144,221.5832,27.1179,333.0058,0.0003188,0.00044456,0.0,0 STARLINK-3981,1 52687U 22053AH  22153.83560691  .00044456  00000-0  31880-3 0  9997,2 52687  53.2144 221.5832 0004165  27.1179 333.0058 15.73243186  2740,6727.772,91.531,352.439,346.835,0.0
52687.0,STARLINK-3981,PAYLOAD,2022-06-02 21:34:44,15.73311016,0.000318,53.2143,221.2687,30.3979,329.7225,0.00077807,0.00110569,0.0,0 STARLINK-3981,1 52687U 22053AH  22153.89912524  .00110569  00000-0  77807-3 0  9997,2 52687  53.2143 221.2687 0003180  30.3979 329.7225 15.73311016  2751,6727.579000000002,91.527,351.583,347.30400000000014,0.0
52687.0,STARLINK-3981,PAYLOAD,2022-06-03 09:46:35,15.73227491,0.0002807,53.2141,218.7533,26.0596,334.0565,0.00017547,0.00024107,0.0,0 STARLINK-3981,1 52687U 22053AH  22154.40735394  .00024107  00000-0  17547-3 0  9990,2 52687  53.2141 218.7533 0002807  26.0596 334.0565 15.73227491  2830,6727.816999999999,91.532,351.57,347.793,0.0
52687.0,STARLINK-3981,PAYLOAD,2022-06-03 14:20:53,15.74195163,0.0008058,53.2143,217.8103,353.5918,6.4999,0.0071524,0.01157746,0.0,0 STARLINK-3981,1 52687U 22053AH  22154.59784626  .01157746  00000-0  71524-2 0  9993,2 52687  53.2143 217.8103 0008058 353.5918   6.4999 15.74195163  2860,6725.059,91.475,352.343,341.505,0.0
52687.0,STARLINK-3981,PAYLOAD,2022-06-05 20:00:01,15.73250106,0.00023,53.2145,206.7489,17.5257,50.2202,-0.00066209,-0.00092736,0.0,0 STARLINK-3981,1 52687U 22053AH  22156.83334491 -.00092736  00000-0 -66209-3 0  9996,2 52687  53.2145 206.7489 0002300  17.5257  50.2202 15.73250106  3215,6727.752,91.53,351.165,348.07,0.0
52687.0,STARLINK-3981,PAYLOAD,2022-06-05 22:00:00,15.73193483,0.0002288,53.2149,206.3358,17.3214,162.6813,4.3934e-05,5.547e-05,0.0,0 STARLINK-3981,1 52687U 22053AH  22156.91667824  .00005547  00000-0  43934-4 0  9997,2 52687  53.2149 206.3358 0002288  17.3214 162.6813 15.73193483  1304,6727.9140000000025,91.534,351.3180000000001,348.23900000000015,0.0
52687.0,STARLINK-3981,PAYLOAD,2022-06-06 04:00:00,15.73229965,0.0002212,53.215,205.0984,18.3816,138.3123,-0.00030066,-0.00042662,0.0,0 STARLINK-3981,1 52687U 22053AH  22157.16667824 -.00042662  00000-0 -30066-3 0  9997,2 52687  53.2150 205.0984 0002212  18.3816 138.3123 15.73229965  3269,6727.81,91.531,351.163,348.18699999999984,0.0
52687.0,STARLINK-3981,PAYLOAD,2022-06-06 14:00:01,15.73145099,0.000255,53.2147,203.0387,12.5075,345.3652,0.00052452,0.00073472,0.0,0 STARLINK-3981,1 52687U 22053AH  22157.58334491  .00073472  00000-0  52452-3 0  9998,2 52687  53.2147 203.0387 0002550  12.5075 345.3652 15.73145099  1303,6728.052,91.536,351.63199999999995,348.201,0.0
52687.0,STARLINK-3981,PAYLOAD,2022-06-06 22:00:00,15.73176308,0.0002284,53.2147,201.3872,13.2291,73.5502,0.00040301,0.00056265,0.0,0 STARLINK-3981,1 52687U 22053AH  22157.91667824  .00056265  00000-0  40301-3 0  9995,2 52687  53.2147 201.3872 0002284  13.2291  73.5502 15.73176308  3386,6727.9630000000025,91.535,351.36400000000015,348.291,0.0
52687.0,STARLINK-3981,PAYLOAD,2022-06-07 14:00:01,15.73242032,0.0002601,53.2147,198.0902,15.0382,249.6419,-0.00044857,-0.00063229,0.0,0 STARLINK-3981,1 52687U 22053AH  22158.58334491 -.00063229  00000-0 -44857-3 0  9990,2 52687  53.2147 198.0902 0002601  15.0382 249.6419 15.73242032  3499,6727.775,91.531,351.39,347.89,0.0
52687.0,STARLINK-3981,PAYLOAD,2022-06-07 22:00:00,15.73155851,0.0002384,53.215,196.4384,17.2227,336.4352,0.00037165,0.00051765,0.0,0 STARLINK-3981,1 52687U 22053AH  22158.91667824  .00051765  00000-0  37165-3 0  9990,2 52687  53.2150 196.4384 0002384  17.2227 336.4352 15.73155851  1300,6728.021,91.536,351.49,348.282,0.0
52687.0,STARLINK-3981,PAYLOAD,2022-06-08 06:00:02,15.73207298,0.0002508,53.2154,194.7897,17.3756,65.2333,4.4813e-05,5.674e-05,0.0,0 STARLINK-3981,1 52687U 22053AH  22159.25002315  .00005674  00000-0  44813-4 0  9993,2 52687  53.2154 194.7897 0002508  17.3756  65.2333 15.73207298  3592,6727.874,91.533,351.427,348.052,0.0
52687.0,STARLINK-3981,PAYLOAD,2022-06-08 14:00:01,15.73225429,0.0002698,53.215,193.1415,14.4957,156.9808,-0.00024804,-0.00035332,0.0,0 STARLINK-3981,1 52687U 22053AH  22159.58334491 -.00035332  00000-0 -24804-3 0  9995,2 52687  53.2150 193.1415 0002698  14.4957 156.9808 15.73225429  1306,6727.823,91.532,351.50300000000016,347.87300000000016,0.0
52687.0,STARLINK-3981,PAYLOAD,2022-06-08 20:00:01,15.73183524,0.0002515,53.2152,191.9026,14.4814,133.7081,-6.0033e-05,-9.033e-05,0.0,0 STARLINK-3981,1 52687U 22053AH  22159.83334491 -.00009033  00000-0 -60033-4 0  9997,2 52687  53.2152 191.9026 0002515  14.4814 133.7081 15.73183524  3680,6727.941999999999,91.534,351.499,348.115,0.0
52687.0,STARLINK-3981,PAYLOAD,2022-06-08 22:00:01,15.73176408,0.0002462,53.2151,191.4899,14.5551,245.93,-2.7448e-05,-4.468e-05,0.0,0 STARLINK-3981,1 52687U 22053AH  22159.91668981 -.00004468  00000-0 -27448-4 0  9990,2 52687  53.2151 191.4899 0002462  14.5551 245.9300 15.73176408  1302,6727.962,91.535,351.4840000000001,348.171,0.0
52687.0,STARLINK-3981,PAYLOAD,2022-06-09 14:00:01,15.73146354,0.0002815,53.2147,188.1932,18.6754,59.5184,0.00042332,0.00059079,0.0,0 STARLINK-3981,1 52687U 22053AH  22160.58334491  .00059079  00000-0  42332-3 0  9995,2 52687  53.2147 188.1932 0002815  18.6754  59.5184 15.73146354  1306,6728.0480000000025,91.536,351.807,348.019,0.0
52687.0,STARLINK-3981,PAYLOAD,2022-06-09 22:00:00,15.7315652,0.0002578,53.215,186.5416,20.6063,146.4839,0.00053319,0.00074745,0.0,0 STARLINK-3981,1 52687U 22053AH  22160.91667824  .00074745  00000-0  53319-3 0  9995,2 52687  53.2150 186.5416 0002578  20.6063 146.4839 15.73156520  3852,6728.019,91.536,351.619,348.15,0.0
52687.0,STARLINK-3981,PAYLOAD,2022-06-10 14:00:01,15.73250379,0.0002898,53.2148,183.2442,18.6843,326.2709,-0.00011036,-0.00016119,0.0,0 STARLINK-3981,1 52687U 22053AH  22161.58334491 -.00016119  00000-0 -11036-3 0  9993,2 52687  53.2148 183.2442 0002898  18.6843 326.2709 15.73250379  3963,6727.752,91.53,351.566,347.667,0.0
52687.0,STARLINK-3981,PAYLOAD,2022-06-10 22:00:00,15.73183055,0.0002555,53.2147,181.5926,19.0602,54.9013,0.00051612,0.00072394,0.0,0 STARLINK-3981,1 52687U 22053AH  22161.91667824  .00072394  00000-0  51612-3 0  9998,2 52687  53.2147 181.5926 0002555  19.0602  54.9013 15.73183055  1303,6727.943,91.534,351.527,348.089,0.0
52687.0,STARLINK-3981,PAYLOAD,2022-06-11 22:00:00,15.73220411,0.0002583999999999,53.2143,176.6437,18.2993,322.495,-0.00011386,-0.00016587,0.0,0 STARLINK-3981,1 52687U 22053AH  22162.91667824 -.00016587  00000-0 -11386-3 0  9997,2 52687  53.2143 176.6437 0002584  18.2993 322.4950 15.73220411  4176,6727.837,91.532,351.44,347.964,0.0
52687.0,STARLINK-3981,PAYLOAD,2022-06-12 14:00:01,15.72846162,0.0002471,53.2166,173.3494,18.5857,140.0325,0.0039776,0.00589651,0.0,0 STARLINK-3981,1 52687U 22053AH  22163.58334491  .00589651  00000-0  39776-2 0  9999,2 52687  53.2166 173.3494 0002471  18.5857 140.0325 15.72846162  4272,6728.904,91.554,352.432,349.106,0.0
52687.0,STARLINK-3981,PAYLOAD,2022-06-12 22:00:00,15.73168769,0.0002585,53.214,171.6949,18.3417,229.2996,0.00059826,0.00084081,0.0,0 STARLINK-3981,1 52687U 22053AH  22163.91667824  .00084081  00000-0  59826-3 0  9991,2 52687  53.2140 171.6949 0002585  18.3417 229.2996 15.73168769  1302,6727.984,91.535,351.588,348.11,0.0
52687.0,STARLINK-3981,PAYLOAD,2022-06-13 04:00:00,15.732569,0.0002641,53.2141,170.459,17.7416,206.5864,-0.0006149,-0.00086267,0.0,0 STARLINK-3981,1 52687U 22053AH  22164.16667824 -.00086267  00000-0 -61490-3 0  9999,2 52687  53.2141 170.4590 0002641  17.7416 206.5864 15.73256900  4374,6727.733,91.53,351.375,347.821,0.0
52687.0,STARLINK-3981,PAYLOAD,2022-06-13 12:00:00,15.73180358,0.0002842,53.2136,168.8106,14.0652,299.2365,0.00054067,0.00075893,0.0,0 STARLINK-3981,1 52687U 22053AH  22164.50001157  .00075893  00000-0  54067-3 0  9991,2 52687  53.2136 168.8106 0002842  14.0652 299.2365 15.73180358  4421,6727.951,91.534,351.728,347.904,0.0
52687.0,STARLINK-3981,PAYLOAD,2022-06-13 14:00:01,15.73231135,0.0002832,53.2134,168.3976,15.3828,50.1385,-0.00016093,-0.00023181,0.0,0 STARLINK-3981,1 52687U 22053AH  22164.58334491 -.00023181  00000-0 -16093-3 0  9991,2 52687  53.2134 168.3976 0002832  15.3828  50.1385 15.73231135  1307,6727.806,91.531,351.577,347.766,0.0
52687.0,STARLINK-3981,PAYLOAD,2022-06-13 22:00:00,15.73208234,0.0002546,53.2137,166.7459,19.293,135.2101,-7.038899999999999e-05,-0.00010493,0.0,0 STARLINK-3981,1 52687U 22053AH  22164.91667824 -.00010493  00000-0 -70389-4 0  9998,2 52687  53.2137 166.7459 0002546  19.2930 135.2101 15.73208234  4484,6727.871999999999,91.533,351.45,348.024,0.0
52687.0,STARLINK-3981,PAYLOAD,2022-06-14 14:00:01,15.7320909,0.0002742,53.2138,163.4486,13.3805,318.9519,-0.00055745,-0.00078181,0.0,0 STARLINK-3981,1 52687U 22053AH  22165.58334491 -.00078181  00000-0 -55745-3 0  9999,2 52687  53.2138 163.4486 0002742  13.3805 318.9519 15.73209090  1305,6727.869000000002,91.533,351.579,347.889,0.0
52687.0,STARLINK-3981,PAYLOAD,2022-06-14 22:00:00,15.73150463,0.0002535,53.2139,161.7974,15.7801,45.4595,0.00043695,0.00061025,0.0,0 STARLINK-3981,1 52687U 22053AH  22165.91667824  .00061025  00000-0  43695-3 0  9993,2 52687  53.2139 161.7974 0002535  15.7801  45.4595 15.73150463  4646,6728.036,91.536,351.607,348.196,0.0
